SL-16 R/B               
1 25400U 98043G   25342.86916406  .00000145  00000+0  79691-4 0  9996
2 25400  98.8118 290.6657 0008837 279.3232  80.6948 14.26024042426043
SL-16 R/B               
1 25407U 98045B   25342.80921131 -.00000089  00000+0 -21027-4 0  9999
2 25407  71.0122  12.6930 0007128 183.9466 176.1603 14.16176127414233
ISS (ZARYA)             
1 25544U 98067A   25342.86487849  .00012323  00000+0  22804-3 0  9999
2 25544  51.6308 161.6653 0003381 221.9847 138.0883 15.49428834542258
CZ-4B R/B               
1 25732U 99025C   25342.73784649  .00000164  00000+0  10027-3 0  9991
2 25732  98.6773  24.1072 0036171 245.8055 226.2503 14.18242225375279
OKEAN-O                 
1 25860U 99039A   25342.73348179  .00001550  00000+0  21112-3 0  9999
2 25860  97.9607  38.4697 0000797  88.8473 271.2830 14.80151839420930
SL-16 R/B               
1 25861U 99039B   25342.73241306  .00001306  00000+0  17286-3 0  9990
2 25861  98.0130  36.8832 0014608 187.7221 172.3768 14.81578663423396
DELTA 2 R/B             
1 25876U 99041E   25342.88984148  .00001217  00000+0  23585-3 0  9993
2 25876  51.7619 303.8142 0504755  80.4200 285.3372 14.11385260350201
HELIOS 1B               
1 25977U 99064A   25342.96862710  .00002566  00000+0  29122-3 0  9990
2 25977  98.1753 237.5224 0001901  47.6384 312.4992 14.87256421671771
TERRA                   
1 25994U 99068A   25342.90928449  .00000788  00000+0  17004-3 0  9999
2 25994  97.9753  34.7344 0003528 105.4870  11.8952 14.60945359381823
SL-16 R/B               
1 26070U 00006B   25342.94235178  .00000048  00000+0  48844-4 0  9999
2 26070  71.0032 288.6415 0018316 313.8916  46.0694 14.15810460335712
TITAN 4B R/B            
1 26474U 00047B   25342.96430031  .00004598  00000+0  29545-3 0  9999
2 26474  67.9903 295.4577 0039226 149.1684 211.1780 15.08735534379227
ENVISAT                 
1 27386U 02009A   25342.87249422  .00000312  00000+0  11500-3 0  9996
2 27386  98.3594 293.7112 0001143  81.8098 338.8518 14.38997309246117
